0 H-2A R/B
1 27601U 02056E   13281.29156174  .00000123  00000-0  61260-4 0  9163
2 27601 098.5010 004.5734 0071791 323.5588 071.6245 14.31190969564950
0 H-2A R/B
1 27601U 02056E   13282.34134506  .00000126  00000-0  62380-4 0  9173
2 27601 098.5011 005.6007 0071781 320.4003 080.4685 14.31191995565107
0 H-2A R/B
1 27601U 02056E   13283.82851775  .00000123  00000-0  61249-4 0  9182
2 27601 098.5013 007.0561 0071685 315.9874 182.8380 14.31192602565327
0 H-2A R/B
1 27601U 02056E   13286.18974417  .00000145  00000-0  69537-4 0  9208
2 27601 098.5013 009.3671 0071645 308.9056 108.6819 14.31193160565664
0 H-2A R/B
1 27601U 02056E   13287.30314919  .00000186  00000-0  84529-4 0  9212
2 27601 098.5012 010.4568 0071646 305.5660 085.3274 14.31193575565820
0 H-2A R/B
1 27601U 02056E   13288.85620449  .00000246  00000-0  10681-3 0  9226
2 27601 098.5010 011.9770 0071640 300.9065 167.2070 14.31194596566044
0 H-2A R/B
1 27601U 02056E   13290.16619170  .00000221  00000-0  97572-4 0  9231
2 27601 098.5007 013.2592 0071616 296.9847 076.7100 14.31195475566227
0 H-2A R/B
1 27601U 02056E   13291.36004023  .00000223  00000-0  98201-4 0  9242
2 27601 098.5005 014.4277 0071637 293.3981 107.8429 14.31196014566401
0 H-2A R/B
1 27601U 02056E   13292.71193241  .00000231  00000-0  10121-3 0  9257
2 27601 098.5002 015.7507 0071621 289.3451 233.2674 14.31196883566598
0 H-2A R/B
1 27601U 02056E   13294.15487943  .00000237  00000-0  10352-3 0  9265
2 27601 098.5000 017.1627 0071592 285.0158 107.8463 14.31197736566791
0 H-2A R/B
1 27601U 02056E   13295.20729215  .00000240  00000-0  10460-3 0  9278
2 27601 098.5000 018.1927 0071578 281.8535 130.2600 14.31198228566949
